KUIPER-00053            
1 64513U 25134P   25281.21574956 -.00403647  00000+0 -31848-1 0  9991
2 64513  51.8923 178.6507 0004009 129.8094 230.3232 15.02427701 17618
KUIPER-00054            
1 64514U 25134Q   25281.33335648 -.00022383  00000+0 -10894-2 0  9991
2 64514  51.8781 176.0236 0007459 138.0653  94.4125 15.17494355  1301
KUIPER-00055            
1 64515U 25134R   25281.33335648 -.00013224  00000+0 -58073-3 0  9998
2 64515  51.8844 175.5916 0000234 287.0551 217.2962 15.20662069  3799
KUIPER-00056            
1 64516U 25134S   25279.00680414 -.00000745  00000+0 -31989-4 0  9996
2 64516  51.8848 189.5087 0006788 196.7523 163.3227 15.05336661 17275
KUIPER-00057            
1 64517U 25134T   25280.47381352 -.00138687  00000+0 -18476-1 0  9999
2 64517  51.9000 189.1301 0009544 128.7000 231.4817 14.80035947 17402
KUIPER-00058            
1 64518U 25134U   25281.33335648 -.00465663  00000+0 -41229-1 0  9992
2 64518  51.9046 180.0980 0005630 161.9827 303.4719 14.97993364  5147
KUIPER-00059            
1 64519U 25134V   25281.33335648 -.00982267  00000+0 -61775-1 0  9995
2 64519  51.8885 176.9817 0002843 298.2298 263.9584 15.11777833  4147
KUIPER-00060            
1 64520U 25134W   25280.99602534 -.00029330  00000+0 -18330-2 0  9992
2 64520  51.8853 178.6986 0002328 169.0995 191.0030 15.08792975 17586
